ARIANE 40 R/B           
1 20443U 90005H   25365.78061551  .00000589  00000+0  20118-3 0  9997
2 20443  98.3216  63.4182 0010913  53.6574 306.5621 14.39814775883036
DELTA 2 R/B(1)          
1 20453U 90008B   25365.02618281  .00072340  00000+0  10991-2 0  9997
2 20453  35.6062 262.3093 0107327 344.1232  15.6150 15.46942304915463
COSMOS 2058             
1 20465U 90010A   25365.76946303  .00007674  00000+0  46146-3 0  9993
2 20465  82.4717 114.3140 0009951 203.7098 156.3675 15.10680285931984
SL-14 R/B               
1 20466U 90010B   25365.90147673  .00000829  00000+0  97617-4 0  9998
2 20466  82.5029 331.0501 0020300 158.9904 201.2150 14.83492826918433
SL-14 R/B               
1 20511U 90018B   25365.85402301  .00000856  00000+0  10469-3 0  9992
2 20511  82.5220 286.5008 0015412 319.6323  40.3746 14.82070098912532
HST                     
1 20580U 90037B   25365.46963687  .00010435  00000+0  35945-3 0  9995
2 20580  28.4654 144.9753 0002588  81.6509 278.4380 15.28310198762860
SL-16 R/B               
1 20625U 90046B   25365.62080704  .00000220  00000+0  13787-3 0  9994
2 20625  70.9993  80.8705 0012591  41.3245 318.8828 14.14998782838762
COSMOS 2084             
1 20663U 90055A   25365.90202635  .00004821  00000+0  34775-3 0  9997
2 20663  62.7891 206.6952 0028586 177.4549 182.6702 15.05146157926118
SL-6 R/B(2)             
1 20666U 90055D   25365.66078962  .00004652  00000+0  35589-3 0  9993
2 20666  62.7835 125.1202 0015026 321.0536  38.9479 15.03182797927966
SL-8 R/B                
1 20775U 90078B   25365.91837262  .00018629  00000+0  57233-3 0  9992
2 20775  82.9057 312.1345 0369459 241.3007 115.0616 14.86626700799225
SL-8 R/B                
1 21088U 91006B   25365.71010889  .00000059  00000+0  43942-4 0  9999
2 21088  82.9409 220.6020 0021537 223.6060 202.9894 13.77492824754717
OKEAN-3                 
1 21397U 91039A   25365.57481053  .00005389  00000+0  38487-3 0  9995
2 21397  82.5160  42.8137 0013803 195.4585 164.6222 15.04246894854792
COSMOS 2151             
1 21422U 91042A   25365.90547072  .00003358  00000+0  26932-3 0  9995
2 21422  82.4968 149.0330 0011268 290.4434  69.5579 14.99778036853038
SL-14 R/B               
1 21423U 91042B   25365.89286937  .00000774  00000+0  94860-4 0  9999
2 21423  82.4937 283.7646 0018552 102.6340 257.6950 14.81759615843039
ERS-1                   
1 21574U 91050A   25365.92290239  .00000615  00000+0  21132-3 0  9994
2 21574  98.7897  17.4569 0032709  44.7104 315.6711 14.39382312805982
ARIANE 40 R/B           
1 21610U 91050F   25365.71879527  .00000683  00000+0  21717-3 0  9999
2 21610  98.2139  55.4620 0001962 283.7397  76.3575 14.42831425809197
INTERCOSMOS 25          
1 21819U 91086A   25365.87213521  .00002458  00000+0  48960-3 0  9993
2 21819  82.6077 351.0027 1486088 263.1308  79.9072 12.11808809488472
SL-8 R/B                
1 21876U 92008B   25365.94951602  .00000159  00000+0  14757-3 0  9991
2 21876  82.9278 318.1584 0033997 326.0043  95.3557 13.75963675700105
SL-8 R/B                
1 21938U 92020B   25365.91033866  .00000238  00000+0  23041-3 0  9998
2 21938  82.9290 204.0814 0029987 125.6252 351.9102 13.75533013691819
USA 81                  
1 21949U 92023A   25365.89610959  .00000377  00000+0  13219-3 0  9994
2 21949  85.0089 170.5283 0001077 101.5823 258.5491 14.32335642 85086
COSMOS 2219             
1 22219U 92076A   25365.89494393  .00000437  00000+0  25410-3 0  9998
2 22219  71.0599 159.7902 0019873 300.4470  59.4688 14.14074411708796
SL-16 R/B               
1 22220U 92076B   25365.91520624 -.00000142  00000+0 -46652-4 0  9997
2 22220  71.0011 331.1383 0013870 208.2174 185.8207 14.16845673712236
COSMOS 2221             
1 22236U 92080A   25365.88310858  .00004291  00000+0  38093-3 0  9997
2 22236  82.5041 344.0002 0016153  63.4918 296.7958 14.95852433770652
SL-16 R/B               
1 22285U 92093B   25365.82521894 -.00000146  00000+0 -50292-4 0  9996
2 22285  71.0213 146.7323 0002849  15.9964 344.1248 14.15434741703558
COSMOS 2228             
1 22286U 92094A   25365.87688617  .00003778  00000+0  32649-3 0  9997
2 22286  82.5190 302.2233 0018276 164.5359 195.6426 14.96833539765911
SL-16 R/B               
1 22566U 93016B   25365.92955758  .00000024  00000+0  36538-4 0  9995
2 22566  71.0087 357.4981 0008057  58.8730 301.3182 14.15295619692585
COSMOS 2242             
1 22626U 93024A   25365.89726207  .00003477  00000+0  30548-3 0  9991
2 22626  82.5191 331.5323 0016591 167.0410 193.1242 14.96200041770257
SL-16 R/B               
1 22803U 93059B   25365.85982742  .00000036  00000+0  41529-4 0  9990
2 22803  70.9899 154.1670 0019033 308.6348  51.3072 14.17219327669928
ARIANE 40 R/B           
1 22830U 93061H   25365.68271783  .00000542  00000+0  21428-3 0  9997
2 22830  98.5049  70.8657 0011723 123.2242 237.0068 14.32816187684369
COSMOS 2278             
1 23087U 94023A   25365.91459016  .00000394  00000+0  23035-3 0  9995
2 23087  71.0540 316.8929 0007515 144.7327 215.4294 14.14352661635221
SL-16 R/B               
1 23088U 94023B   25365.92115858  .00000078  00000+0  64737-4 0  9994
2 23088  70.9975 213.2052 0002406 356.9438   3.1669 14.14998603636505
SL-16 R/B               
1 23343U 94074B   25365.62407507  .00000940  00000+0  13293-3 0  9994
2 23343  97.7184  34.1763 0008043  84.5780  28.6087 14.79314635677187
SL-16 R/B               
1 23405U 94077B   25365.78787251 -.00000197  00000+0 -76149-4 0  9996
2 23405  70.9827 135.3421 0005026 268.6201  91.4346 14.15550357606629
ARIANE 40+ R/B          
1 23561U 95021B   25365.78897653  .00000619  00000+0  21159-3 0  9994
2 23561  98.4626  73.1459 0006485 354.6501 116.6465 14.39712432609471
SL-16 R/B               
1 23705U 95058B   25365.93286205  .00000225  00000+0  13940-3 0  9998
2 23705  71.0221 322.5079 0014330 229.4597 130.5279 14.15482763558263
SL-16 R/B               
1 24298U 96051B   25365.89387884  .00000036  00000+0  46426-4 0  9996
2 24298  70.7598 318.7398 0019420 237.8383 122.0853 14.12398757512075
ORBVIEW 2 (SEASTAR)     
1 24883U 97037A   25365.87519691  .00000604  00000+0  22653-3 0  9998
2 24883  98.8470 163.4330 0001281 251.3758 108.7287 14.35433725498748
SL-16 R/B               
1 25400U 98043G   25365.88313583  .00000144  00000+0  79363-4 0  9995
2 25400  98.8150 313.8108 0009314 205.8578 154.2138 14.26030852429325
SL-16 R/B               
1 25407U 98045B   25365.90646566  .00000044  00000+0  46280-4 0  9998
2 25407  71.0126 324.1188 0005718 144.4037 215.7468 14.16181566417507
ISS (ZARYA)             
1 25544U 98067A   25365.75865998  .00015131  00000+0  28223-3 0  9998
2 25544  51.6330  48.2919 0007527 325.0386  35.0108 15.48982944545804
CZ-4B R/B               
1 25732U 99025C   25365.73661315  .00000157  00000+0  96366-4 0  9993
2 25732  98.6741  46.5892 0037169 178.8546 291.5069 14.18248821378532
OKEAN-O                 
1 25860U 99039A   25365.71772406  .00001438  00000+0  19606-3 0  9996
2 25860  97.9577  61.2530 0001310 114.4766 245.6583 14.80199281424330
SL-16 R/B               
1 25861U 99039B   25365.76214768  .00001204  00000+0  15973-3 0  9998
2 25861  98.0099  59.9121 0016032 115.8199 244.4669 14.81618691426802
DELTA 2 R/B             
1 25876U 99041E   25365.90241622  .00003028  00000+0  52484-3 0  9996
2 25876  51.7595 211.9476 0504244 148.2468 214.9945 14.11468614353454
HELIOS 1B               
1 25977U 99064A   25365.70800727  .00003617  00000+0  40657-3 0  9991
2 25977  98.1754 260.9364 0000533  35.4024 324.7227 14.87370792675154
TERRA                   
1 25994U 99068A   25365.91002405  .00000842  00000+0  18108-3 0  9997
2 25994  97.9722  56.8884 0003181  55.6854 356.7189 14.60926582385189
SL-16 R/B               
1 26070U 00006B   25365.90425928  .00000321  00000+0  18747-3 0  9996
2 26070  71.0014 240.3631 0018735 282.8196  77.0833 14.15813152338967
TITAN 4B R/B            
1 26474U 00047B   25365.90063754  .00005629  00000+0  35820-3 0  9991
2 26474  67.9888 231.0369 0037660 121.2563 239.2284 15.08936805382689
ENVISAT                 
1 27386U 02009A   25365.95019499  .00000264  00000+0  99422-4 0  9995
2 27386  98.3626 316.2065 0001107  88.1807 295.1197 14.39007536249430
IDEFIX & ARIANE 42P R/B 
1 27422U 02021B   25365.81211971  .00000642  00000+0  26066-3 0  9997
2 27422  98.5807 300.2576 0012472  31.6824 328.5107 14.30967286234314
AQUA                    
1 27424U 02022A   25365.92641128  .00002078  00000+0  42628-3 0  9990
2 27424  98.4058 327.1196 0001962  94.7781 340.6230 14.61783896258835
CZ-4B R/B               
1 27432U 02024C   25365.75355940  .00000136  00000+0  92946-4 0  9998
2 27432  98.8971  54.4564 0049647 215.1039 255.5163 14.14532524219630
MIDORI II (ADEOS-II)    
1 27597U 02056A   25365.89769074  .00000630  00000+0  26567-3 0  9991
2 27597  98.7661 318.9570 0001135 138.5969 221.5299 14.29222467200611
H-2A R/B                
1 27601U 02056E   25365.87159921  .00000749  00000+0  27707-3 0  9997
2 27601  98.3090 323.8694 0070484   4.6905  48.7705 14.33696675204398
CZ-4B R/B               
1 28059U 03049C   25365.92070594  .00000800  00000+0  19484-3 0  9993
2 28059  98.6801 353.2106 0049333  78.7524 281.9210 14.54931377176745
CZ-2C R/B               
1 28222U 04012C   25365.70786761  .00057273  00000+0  78270-3 0  9996
2 28222  97.7393  59.9143 0016635 197.4435 162.6250 15.57111254193671
SL-16 R/B               
1 28353U 04021B   25365.50201851  .00000433  00000+0  24988-3 0  9994
2 28353  71.0010  15.5903 0004223 168.3881 191.7339 14.14584397113195
CZ-4B R/B               
1 28415U 04035C   25365.62409639  .00013147  00000+0  48046-3 0  9992
2 28415  97.3590  35.7184 0032174 207.4423 152.5119 15.27721344169514
CZ-2C R/B               
1 28480U 04046B   25365.75087182  .00000592  00000+0  23513-3 0  9997
2 28480  98.1997 279.9484 0139485 356.2873   3.7261 14.26955418 98814
